STARLINK-30262          
1 57535U 23115Q   24012.88926423  .00009208  00000+0  69579-3 0  9995
2 57535  43.0021 319.5976 0000705 260.0244 100.0519 15.02536188 23962
STARLINK-30166          
1 57602U 23119A   24013.13696373  .00011184  00000+0  84188-3 0  9990
2 57602  43.0037  35.8836 0000899 243.7814 116.2936 15.02527102 24703
STARLINK-30223          
1 57603U 23119B   24013.18346572  .00021401  00000+0  15947-2 0  9998
2 57603  43.0036  35.3732 0000759 244.7638 115.3126 15.02531344 24763
STARLINK-30218          
1 57604U 23119C   24013.19012502  .00019357  00000+0  14444-2 0  9991
2 57604  43.0034  35.4224 0000838 236.0950 123.9813 15.02526723 24761
STARLINK-30138          
1 57605U 23119D   24013.18679079  .00020428  00000+0  15228-2 0  9991
2 57605  43.0033  35.3970 0000935 241.4516 118.6232 15.02537366 24765
STARLINK-30255          
1 57606U 23119E   24013.42496126 -.00000356  00000+0 -11302-4 0  9990
2 57606  43.0034  33.7462 0000911 248.6204 111.4541 15.02528518 24798
STARLINK-30252          
1 57607U 23119F   24013.39650933 -.00002703  00000+0 -18521-3 0  9992
2 57607  43.0024  21.6527 0000991 282.1108  77.9623 15.02519649 24893
STARLINK-30258          
1 57608U 23119G   24013.17680182 -.00001404  00000+0 -88919-4 0  9994
2 57608  43.0009  35.3180 0000995 216.9217 143.1557 15.02529424 24764
STARLINK-30174          
1 57609U 23119H   24013.17014592  .00013236  00000+0  99351-3 0  9996
2 57609  43.0035  35.2724 0001005 244.4709 115.6030 15.02519246 24763
STARLINK-30248          
1 57610U 23119J   24013.17347689  .00008527  00000+0  64575-3 0  9991
2 57610  43.0019  35.2945 0000675 197.5167 162.5652 15.02524364 24713
STARLINK-30052          
1 57611U 23119K   24013.16681489  .00019262  00000+0  14374-2 0  9999
2 57611  43.0032  35.2479 0000891 235.6104 124.4655 15.02528015 24779
STARLINK-30245          
1 57612U 23119L   24013.16348688 -.00003674  00000+0 -25714-3 0  9994
2 57612  43.0034  35.2216 0000982 248.4819 111.5918 15.02519715 24773
STARLINK-30041          
1 57613U 23119M   24013.42607509  .00025781  00000+0  19170-2 0  9993
2 57613  43.0030  33.7530 0000901 259.5019 100.5721 15.02526438 24802
STARLINK-30244          
1 57614U 23119N   24013.42274291  .00025392  00000+0  18883-2 0  9990
2 57614  43.0032  33.7279 0000863 260.6981  99.3764 15.02529244 24803
STARLINK-30246          
1 57615U 23119P   24013.15460701 -.00002181  00000+0 -14650-3 0  9996
2 57615  43.0027  35.1410 0000924 272.6417  87.4320 15.02522893 24759
STARLINK-30075          
1 57616U 23119Q   24013.15027951  .00004801  00000+0  37030-3 0  9999
2 57616  43.0032  35.9836 0001528 266.4446  93.6221 15.02531125 24757
STARLINK-30148          
1 57617U 23119R   24013.14695565  .00014878  00000+0  11145-2 0  9994
2 57617  43.0030  35.9607 0001063 272.0779  87.9942 15.02522566 24753
STARLINK-30249          
1 57618U 23119S   24013.47601584  .00010245  00000+0  77246-3 0  9998
2 57618  43.0038  34.1277 0001030 278.3048  81.7678 15.02531306 24758
STARLINK-30141          
1 57620U 23119U   24013.13252354 -.00002009  00000+0 -13373-3 0  9993
2 57620  43.0038  35.8499 0000909 251.9170 108.1573 15.02527676 24700
STARLINK-30150          
1 57621U 23119V   24013.13363626 -.00000730  00000+0 -38947-4 0  9993
2 57621  43.0033  35.8594 0001155 251.7894 108.2822 15.02527997 24756
STARLINK-30056          
1 57622U 23119W   24013.17589679  .00015354  00000+0  11735-2 0  9996
2 57622  43.0037  35.2956 0000995 252.1129 107.9605 15.01742364 24766
STARLINK-30100          
1 57623U 23119X   24013.45937902  .00025219  00000+0  18746-2 0  9994
2 57623  43.0036  34.0034 0000844 243.4379 116.6377 15.02549240 24800
STARLINK-30309          
1 57632U 23122A   24013.49900731  .00004598  00000+0  35512-3 0  9990
2 57632  43.0029  46.9727 0000854 256.8116 103.2631 15.02547589 23898
STARLINK-30306          
1 57633U 23122B   24013.16329663  .00011351  00000+0  85416-3 0  9997
2 57633  43.0029  48.7548 0000700 243.5987 116.4783 15.02528016 23853
STARLINK-30323          
1 57634U 23122C   24013.58335648  .00054771  00000+0  40385-2 0  9992
2 57634  43.0010  32.8194 0001958 285.2075 218.6874 15.02530920 24070
STARLINK-30329          
1 57635U 23122D   24013.49235406  .00019741  00000+0  14715-2 0  9990
2 57635  43.0030  46.9234 0000872 261.9394  98.1349 15.02556965 23853
STARLINK-30330          
1 57636U 23122E   24013.48902021  .00000170  00000+0  27634-4 0  9996
2 57636  43.0043  46.8973 0001018 255.8665 104.2064 15.02540523 23905
STARLINK-30311          
1 57637U 23122F   24013.48235800  .00000182  00000+0  28545-4 0  9996
2 57637  43.0042  46.8468 0000804 258.7890 101.2862 15.02544685 23892
STARLINK-30328          
1 57638U 23122G   24013.09810384  .00013735  00000+0  10301-2 0  9997
2 57638  43.0019  35.4829 0001401 236.1946 123.8763 15.02526213 24009
STARLINK-30326          
1 57639U 23122H   24013.10335861  .00018323  00000+0  13677-2 0  9999
2 57639  43.0033  48.3034 0000653 225.6424 134.4365 15.02541355 23851
STARLINK-30324          
1 57640U 23122J   24013.47570529  .00021439  00000+0  15968-2 0  9990
2 57640  43.0031  46.7998 0000833 265.8872  94.1876 15.02547641 23892
STARLINK-30312          
1 57641U 23122K   24013.13998577  .00002040  00000+0  16602-3 0  9995
2 57641  43.0030  48.5797 0000833 254.1658 105.9092 15.02534272 23844
STARLINK-30263          
1 57642U 23122L   24013.13332481  .00003178  00000+0  25025-3 0  9994
2 57642  43.0030  48.5296 0000821 253.2060 106.8692 15.02530361 23844
STARLINK-30280          
1 57643U 23122M   24013.45572510  .00010684  00000+0  80447-3 0  9998
2 57643  43.0029  46.6495 0000720 263.2929  96.7832 15.02549524 23895
STARLINK-30247          
1 57644U 23122N   24013.45906500  .00000282  00000+0  35948-4 0  9999
2 57644  43.0036  46.6785 0000792 264.0781  95.9971 15.02522325 23895
STARLINK-30277          
1 57645U 23122P   24013.46238112  .00036245  00000+0  26821-2 0  9994
2 57645  43.0029  46.6997 0000939 268.4739  91.5995 15.02567140 23901
STARLINK-30265          
1 57646U 23122Q   24013.13665574  .00003294  00000+0  25883-3 0  9991
2 57646  43.0034  48.5556 0000752 232.4066 127.6708 15.02535356 23847
STARLINK-30286          
1 57647U 23122R   24013.45239683 -.00000020  00000+0  13547-4 0  9995
2 57647  43.0040  46.6235 0000799 253.9779 106.0975 15.02536505 23842
STARLINK-30243          
1 57648U 23122S   24013.43907549  .00001163  00000+0  10114-3 0  9991
2 57648  43.0029  46.5257 0001178 260.1030  99.9679 15.02540143 23906
STARLINK-30293          
1 57649U 23122T   24012.51016265  .00041373  00000+0  97749-3 0  9992
2 57649  42.9958  22.5413 0017467 106.2324 254.0456 15.41000708 24110
STARLINK-30299          
1 57650U 23122U   24013.11667715  .00014297  00000+0  10711-2 0  9991
2 57650  43.0030  48.4051 0000782 263.1281  96.9473 15.02541188 23858
STARLINK-30294          
1 57651U 23122V   24013.11395039  .00021481  00000+0  15197-2 0  9995
2 57651  43.0011  35.6666 0001037 268.6982  91.3743 15.04483141 23956
STARLINK-30276          
1 57652U 23122W   24013.17649539  .00017056  00000+0  12743-2 0  9996
2 57652  43.0031  47.9932 0001024 269.7629  90.3096 15.02544176 23850
STARLINK-30289          
1 57653U 23122X   24013.11362961  .00016363  00000+0  12229-2 0  9991
2 57653  43.0017  35.6155 0000959 253.9309 106.1428 15.02555765 24001
STARLINK-30267          
1 57663U 23124A   24012.94620527  .00005303  00000+0  26727-3 0  9990
2 57663  53.0514 256.4123 0001317 106.8780 253.2359 15.18721630 23190
STARLINK-30302          
1 57664U 23124B   24012.94987364  .00007979  00000+0  39445-3 0  9998
2 57664  53.0521 257.8429 0001233 100.6132 259.5001 15.18716168 23174
STARLINK-30298          
1 57665U 23124C   24012.95206350  .00014420  00000+0  69997-3 0  9993
2 57665  53.0526 257.8555 0001426 123.5401 236.5730 15.18718635 23172
STARLINK-30301          
1 57666U 23124D   24012.89027215  .00001641  00000+0  93269-4 0  9999
2 57666  53.0572 233.6131 0001666 111.7629 248.3543 15.18700803 23501
STARLINK-30275          
1 57667U 23124E   24012.94767043  .00005552  00000+0  27914-3 0  9994
2 57667  53.0550 257.8138 0002026 136.2906 223.8249 15.18721576 23178
STARLINK-30278          
1 57668U 23124F   24012.94548771  .00014122  00000+0  68551-3 0  9995
2 57668  53.0497 257.8188 0001308  99.4215 260.6927 15.18735231 23174
STARLINK-30271          
1 57669U 23124G   24012.94109219  .00018852  00000+0  90992-3 0  9994
2 57669  53.0502 257.7850 0001263 133.8193 226.2906 15.18718830 23176
STARLINK-30322          
1 57670U 23124H   24013.05295830  .00003709  00000+0  19167-3 0  9994
2 57670  53.0510 256.3762 0001313 104.1179 255.9961 15.18698111 22858
STARLINK-30296          
1 57671U 23124J   24012.89821996  .00008071  00000+0  39876-3 0  9990
2 57671  53.0532 255.3895 0001495 136.1589 223.9524 15.18722740 23206
STARLINK-30274          
1 57672U 23124K   24012.91128217  .00000642  00000+0  45730-4 0  9993
2 57672  53.0526 257.6009 0001725 125.3296 234.7860 15.18711921 23171
STARLINK-30316          
1 57673U 23124L   24012.91036959  .00040050  00000+0  19086-2 0  9995
2 57673  53.0525 257.5992 0001069 113.8365 246.2742 15.18753418 23175
STARLINK-30314          
1 57674U 23124M   24012.99813156  .00013187  00000+0  64166-3 0  9997
2 57674  53.0508 257.4372 0001228  84.0904 276.0230 15.18711307 22828
STARLINK-30317          
1 57675U 23124N   24013.06613717  .00010883  00000+0  53225-3 0  9992
2 57675  53.0518 257.1391 0001178  92.5577 267.5552 15.18719404 23191
STARLINK-30313          
1 57676U 23124P   24012.90819257  .00020479  00000+0  98700-3 0  9991
2 57676  53.0529 257.5828 0001571 115.2886 244.8271 15.18715679 23170
STARLINK-30303          
1 57677U 23124Q   24012.90599785  .00010446  00000+0  51163-3 0  9998
2 57677  53.0538 257.5707 0001643 117.4494 242.6667 15.18710143 23172
